{
  "type": "FeatureCollection",
  "features": [
    {
      "type": "Feature",
      "properties": {
        "norad_id": 39227,
        "name": "ARIRANG-5 (KOMPSAT-5)",
        "group": "resource",
        "lat": -71.79030592059205,
        "lon": -19.20604238933779,
        "alt_km": 561.9300987547513,
        "timestamp": "2025-12-26T16:33:55.240889+00:00",
        "meta_object_name": "ARIRANG-5 (KOMPSAT-5)",
        "meta_object_id": "2013-042A",
        "meta_epoch": "2025-12-26T07:27:40.644576",
        "meta_mean_motion": 15.04488611,
        "meta_eccentricity": 0.00029572,
        "meta_inclination": 97.6166,
        "meta_ra_of_asc_node": 184.4222,
        "meta_arg_of_pericenter": 33.737,
        "meta_mean_anomaly": 326.4044,
        "meta_ephemeris_type": 0,
        "meta_classification_type": "U",
        "meta_norad_cat_id": 39227,
        "meta_element_set_no": 999,
        "meta_rev_at_epoch": 67786,
        "meta_bstar": 0.00016785534,
        "meta_mean_motion_dot": 2.288e-05,
        "meta_mean_motion_ddot": 0,
        "tle_line1": "1 39227U 13042A   25360.31088709  .00002288  00000+0  16786-3 0  9995",
        "tle_line2": "2 39227  97.6166 184.4222 0002957  33.7370 326.4044 15.04488611677864"
      },
      "geometry": {
        "type": "Point",
        "coordinates": [
          -19.20604238933779,
          -71.79030592059205
        ]
      }
    },
    {
      "type": "Feature",
      "properties": {
        "norad_id": 39418,
        "name": "SKYSAT-A",
        "group": "resource",
        "lat": -80.7231763768202,
        "lon": 177.66581364718343,
        "alt_km": 535.1327610805329,
        "timestamp": "2025-12-26T16:33:55.240899+00:00",
        "meta_object_name": "SKYSAT-A",
        "meta_object_id": "2013-066C",
        "meta_epoch": "2025-12-26T02:41:27.845376",
        "meta_mean_motion": 15.11697781,
        "meta_eccentricity": 0.00217389,
        "meta_inclination": 97.4086,
        "meta_ra_of_asc_node": 49.9135,
        "meta_arg_of_pericenter": 188.7352,
        "meta_mean_anomaly": 171.3503,
        "meta_ephemeris_type": 0,
        "meta_classification_type": "U",
        "meta_norad_cat_id": 39418,
        "meta_element_set_no": 999,
        "meta_rev_at_epoch": 66232,
        "meta_bstar": 0.00020437937,
        "meta_mean_motion_dot": 3.435e-05,
        "meta_mean_motion_ddot": 0,
        "tle_line1": "1 39418U 13066C   25360.11212784  .00003435  00000+0  20438-3 0  9997",
        "tle_line2": "2 39418  97.4086  49.9135 0021738 188.7352 171.3503 15.11697781662322"
      },
      "geometry": {
        "type": "Point",
        "coordinates": [
          177.66581364718343,
          -80.7231763768202
        ]
      }
    },
    {
      "type": "Feature",
      "properties": {
        "norad_id": 39419,
        "name": "DUBAISAT-2",
        "group": "resource",
        "lat": -63.304060729736825,
        "lon": 155.59241409019964,
        "alt_km": 541.7911513605131,
        "timestamp": "2025-12-26T16:33:55.240909+00:00",
        "meta_object_name": "DUBAISAT-2",
        "meta_object_id": "2013-066D",
        "meta_epoch": "2025-12-26T05:55:59.405376",
        "meta_mean_motion": 15.08490005,
        "meta_eccentricity": 0.00097607,
        "meta_inclination": 97.4469,
        "meta_ra_of_asc_node": 350.2396,
        "meta_arg_of_pericenter": 268.6369,
        "meta_mean_anomaly": 91.3742,
        "meta_ephemeris_type": 0,
        "meta_classification_type": "U",
        "meta_norad_cat_id": 39419,
        "meta_element_set_no": 999,
        "meta_rev_at_epoch": 66030,
        "meta_bstar": 0.00052385505,
        "meta_mean_motion_dot": 8.118e-05,
        "meta_mean_motion_ddot": 0,
        "tle_line1": "1 39419U 13066D   25360.24721534  .00008118  00000+0  52386-3 0  9990",
        "tle_line2": "2 39419  97.4469 350.2396 0009760 268.6369  91.3742 15.08490005660300"
      },
      "geometry": {
        "type": "Point",
        "coordinates": [
          155.59241409019964,
          -63.304060729736825
        ]
      }
    },
    {
      "type": "Feature",
      "properties": {
        "norad_id": 39574,
        "name": "GPM-CORE",
        "group": "resource",
        "lat": 62.13465349005077,
        "lon": -131.94354964203075,
        "alt_km": 431.36409265763996,
        "timestamp": "2025-12-26T16:33:55.240918+00:00",
        "meta_object_name": "GPM-CORE",
        "meta_object_id": "2014-009C",
        "meta_epoch": "2025-12-26T05:21:16.145856",
        "meta_mean_motion": 15.44676375,
        "meta_eccentricity": 0.0009044,
        "meta_inclination": 64.9729,
        "meta_ra_of_asc_node": 167.5271,
        "meta_arg_of_pericenter": 251.3471,
        "meta_mean_anomaly": 108.6688,
        "meta_ephemeris_type": 0,
        "meta_classification_type": "U",
        "meta_norad_cat_id": 39574,
        "meta_element_set_no": 999,
        "meta_rev_at_epoch": 67109,
        "meta_bstar": 0.00019437588,
        "meta_mean_motion_dot": 8.882e-05,
        "meta_mean_motion_ddot": 0,
        "tle_line1": "1 39574U 14009C   25360.22310354  .00008882  00000+0  19438-3 0  9991",
        "tle_line2": "2 39574  64.9729 167.5271 0009044 251.3471 108.6688 15.44676375671094"
      },
      "geometry": {
        "type": "Point",
        "coordinates": [
          -131.94354964203075,
          62.13465349005077
        ]
      }
    },
    {
      "type": "Feature",
      "properties": {
        "norad_id": 39634,
        "name": "SENTINEL-1A",
        "group": "resource",
        "lat": -73.77612968880152,
        "lon": 35.35279162258111,
        "alt_km": 703.8962446803898,
        "timestamp": "2025-12-26T16:33:55.240928+00:00",
        "meta_object_name": "SENTINEL-1A",
        "meta_object_id": "2014-016A",
        "meta_epoch": "2025-12-26T07:02:19.267584",
        "meta_mean_motion": 14.59199872,
        "meta_eccentricity": 0.00012493,
        "meta_inclination": 98.1804,
        "meta_ra_of_asc_node": 5.3342,
        "meta_arg_of_pericenter": 85.5971,
        "meta_mean_anomaly": 274.5371,
        "meta_ephemeris_type": 0,
        "meta_classification_type": "U",
        "meta_norad_cat_id": 39634,
        "meta_element_set_no": 999,
        "meta_rev_at_epoch": 62480,
        "meta_bstar": 2.4837642e-05,
        "meta_mean_motion_dot": 7.1e-07,
        "meta_mean_motion_ddot": 0,
        "tle_line1": "1 39634U 14016A   25360.29327856  .00000071  00000+0  24838-4 0  9991",
        "tle_line2": "2 39634  98.1804   5.3342 0001249  85.5971 274.5371 14.59199872624809"
      },
      "geometry": {
        "type": "Point",
        "coordinates": [
          35.35279162258111,
          -73.77612968880152
        ]
      }
    },
    {
      "type": "Feature",
      "properties": {
        "norad_id": 39731,
        "name": "KAZEOSAT 1",
        "group": "resource",
        "lat": 59.412998822771335,
        "lon": -93.34461854808087,
        "alt_km": 745.0935560342296,
        "timestamp": "2025-12-26T16:33:55.240937+00:00",
        "meta_object_name": "KAZEOSAT 1",
        "meta_object_id": "2014-024A",
        "meta_epoch": "2025-12-26T06:01:18.694848",
        "meta_mean_motion": 14.42069882,
        "meta_eccentricity": 0.00012302,
        "meta_inclination": 98.3414,
        "meta_ra_of_asc_node": 71.8542,
        "meta_arg_of_pericenter": 97.299,
        "meta_mean_anomaly": 262.834,
        "meta_ephemeris_type": 0,
        "meta_classification_type": "U",
        "meta_norad_cat_id": 39731,
        "meta_element_set_no": 999,
        "meta_rev_at_epoch": 61363,
        "meta_bstar": 6.4854787e-05,
        "meta_mean_motion_dot": 1.7e-06,
        "meta_mean_motion_ddot": 0,
        "tle_line1": "1 39731U 14024A   25360.25091082  .00000170  00000+0  64855-4 0  9996",
        "tle_line2": "2 39731  98.3414  71.8542 0001230  97.2990 262.8340 14.42069882613631"
      },
      "geometry": {
        "type": "Point",
        "coordinates": [
          -93.34461854808087,
          59.412998822771335
        ]
      }
    },
    {
      "type": "Feature",
      "properties": {
        "norad_id": 39766,
        "name": "ALOS-2",
        "group": "resource",
        "lat": 76.40117349605192,
        "lon": 60.19524442815446,
        "alt_km": 622.8521715482157,
        "timestamp": "2025-12-26T16:33:55.240946+00:00",
        "meta_object_name": "ALOS-2",
        "meta_object_id": "2014-029A",
        "meta_epoch": "2025-12-26T06:28:15.297600",
        "meta_mean_motion": 14.79473117,
        "meta_eccentricity": 0.00013733,
        "meta_inclination": 97.9217,
        "meta_ra_of_asc_node": 94.9228,
        "meta_arg_of_pericenter": 98.5268,
        "meta_mean_anomaly": 261.6099,
        "meta_ephemeris_type": 0,
        "meta_classification_type": "U",
        "meta_norad_cat_id": 39766,
        "meta_element_set_no": 999,
        "meta_rev_at_epoch": 62601,
        "meta_bstar": 0.00030578847,
        "meta_mean_motion_dot": 2.233e-05,
        "meta_mean_motion_ddot": 0,
        "tle_line1": "1 39766U 14029A   25360.26962150  .00002233  00000+0  30579-3 0  9990",
        "tle_line2": "2 39766  97.9217  94.9228 0001373  98.5268 261.6099 14.79473117626016"
      },
      "geometry": {
        "type": "Point",
        "coordinates": [
          60.19524442815446,
          76.40117349605192
        ]
      }
    }
  ]
}